CCSDS_OMM_VERS = 2.0
CREATION_DATE  = 
ORIGINATOR     = 

OBJECT_NAME    = STARLINK-35416
OBJECT_ID      = 2025-245Q
CENTER_NAME    = EARTH
REF_FRAME      = TEME
TIME_SYSTEM    = UTC
MEAN_ELEMENT_THEORY = SGP/SGP4

EPOCH          = 2025-11-12T06:00:02.999808
MEAN_MOTION    = 15.76717879
ECCENTRICITY   = .00008239
INCLINATION    = 53.1533
RA_OF_ASC_NODE = 115.0591
ARG_OF_PERICENTER = 63.0380
MEAN_ANOMALY   = 39.8903

EPHEMERIS_TYPE = 0
CLASSIFICATION_TYPE = U
NORAD_CAT_ID   = 66248
ELEMENT_SET_NO = 999
REV_AT_EPOCH   = 315
BSTAR          = -.94874818E-2
MEAN_MOTION_DOT = -.1381058E-1
MEAN_MOTION_DDOT = 0

CCSDS_OMM_VERS = 2.0
CREATION_DATE  = 
ORIGINATOR     = 

OBJECT_NAME    = STARLINK-35304
OBJECT_ID      = 2025-245R
CENTER_NAME    = EARTH
REF_FRAME      = TEME
TIME_SYSTEM    = UTC
MEAN_ELEMENT_THEORY = SGP/SGP4

EPOCH          = 2025-11-12T06:00:02.999808
MEAN_MOTION    = 15.76506059
ECCENTRICITY   = .000109
INCLINATION    = 53.1532
RA_OF_ASC_NODE = 115.0448
ARG_OF_PERICENTER = 69.1567
MEAN_ANOMALY   = 40.2933

EPHEMERIS_TYPE = 0
CLASSIFICATION_TYPE = U
NORAD_CAT_ID   = 66249
ELEMENT_SET_NO = 999
REV_AT_EPOCH   = 299
BSTAR          = -.10076481E-1
MEAN_MOTION_DOT = -.1444786E-1
MEAN_MOTION_DDOT = 0

CCSDS_OMM_VERS = 2.0
CREATION_DATE  = 
ORIGINATOR     = 

OBJECT_NAME    = STARLINK-35338
OBJECT_ID      = 2025-245S
CENTER_NAME    = EARTH
REF_FRAME      = TEME
TIME_SYSTEM    = UTC
MEAN_ELEMENT_THEORY = SGP/SGP4

EPOCH          = 2025-11-12T06:00:02.999808
MEAN_MOTION    = 15.76611000
ECCENTRICITY   = .00008814
INCLINATION    = 53.1530
RA_OF_ASC_NODE = 115.0538
ARG_OF_PERICENTER = 70.8784
MEAN_ANOMALY   = 34.3421

EPHEMERIS_TYPE = 0
CLASSIFICATION_TYPE = U
NORAD_CAT_ID   = 66250
ELEMENT_SET_NO = 999
REV_AT_EPOCH   = 310
BSTAR          = -.96729434E-2
MEAN_MOTION_DOT = -.13991E-1
MEAN_MOTION_DDOT = 0

CCSDS_OMM_VERS = 2.0
CREATION_DATE  = 
ORIGINATOR     = 

OBJECT_NAME    = STARLINK-35485
OBJECT_ID      = 2025-245T
CENTER_NAME    = EARTH
REF_FRAME      = TEME
TIME_SYSTEM    = UTC
MEAN_ELEMENT_THEORY = SGP/SGP4

EPOCH          = 2025-11-12T06:00:02.999808
MEAN_MOTION    = 15.76545933
ECCENTRICITY   = .00009131
INCLINATION    = 53.1531
RA_OF_ASC_NODE = 115.0492
ARG_OF_PERICENTER = 73.4323
MEAN_ANOMALY   = 33.9391

EPHEMERIS_TYPE = 0
CLASSIFICATION_TYPE = U
NORAD_CAT_ID   = 66251
ELEMENT_SET_NO = 999
REV_AT_EPOCH   = 299
BSTAR          = -.9855851E-2
MEAN_MOTION_DOT = -.1418893E-1
MEAN_MOTION_DDOT = 0

CCSDS_OMM_VERS = 2.0
CREATION_DATE  = 
ORIGINATOR     = 

OBJECT_NAME    = STARLINK-35483
OBJECT_ID      = 2025-245U
CENTER_NAME    = EARTH
REF_FRAME      = TEME
TIME_SYSTEM    = UTC
MEAN_ELEMENT_THEORY = SGP/SGP4

EPOCH          = 2025-11-12T06:00:02.999808
MEAN_MOTION    = 15.76404139
ECCENTRICITY   = .00008373
INCLINATION    = 53.1530
RA_OF_ASC_NODE = 115.0394
ARG_OF_PERICENTER = 67.1326
MEAN_ANOMALY   = 44.5573

EPHEMERIS_TYPE = 0
CLASSIFICATION_TYPE = U
NORAD_CAT_ID   = 66252
ELEMENT_SET_NO = 999
REV_AT_EPOCH   = 315
BSTAR          = -.10404994E-1
MEAN_MOTION_DOT = -.1480135E-1
MEAN_MOTION_DDOT = 0

CCSDS_OMM_VERS = 2.0
CREATION_DATE  = 
ORIGINATOR     = 

OBJECT_NAME    = STARLINK-35486
OBJECT_ID      = 2025-245V
CENTER_NAME    = EARTH
REF_FRAME      = TEME
TIME_SYSTEM    = UTC
MEAN_ELEMENT_THEORY = SGP/SGP4

EPOCH          = 2025-11-12T06:00:02.999808
MEAN_MOTION    = 15.76359027
ECCENTRICITY   = .000101
INCLINATION    = 53.1534
RA_OF_ASC_NODE = 115.0361
ARG_OF_PERICENTER = 67.8796
MEAN_ANOMALY   = 45.8647

EPHEMERIS_TYPE = 0
CLASSIFICATION_TYPE = U
NORAD_CAT_ID   = 66253
ELEMENT_SET_NO = 999
REV_AT_EPOCH   = 299
BSTAR          = -.10561424E-1
MEAN_MOTION_DOT = -.1497139E-1
MEAN_MOTION_DDOT = 0

CCSDS_OMM_VERS = 2.0
CREATION_DATE  = 
ORIGINATOR     = 

OBJECT_NAME    = STARLINK-35488
OBJECT_ID      = 2025-245W
CENTER_NAME    = EARTH
REF_FRAME      = TEME
TIME_SYSTEM    = UTC
MEAN_ELEMENT_THEORY = SGP/SGP4

EPOCH          = 2025-11-12T06:00:02.999808
MEAN_MOTION    = 15.76279154
ECCENTRICITY   = .00011539
INCLINATION    = 53.1531
RA_OF_ASC_NODE = 115.0307
ARG_OF_PERICENTER = 68.0973
MEAN_ANOMALY   = 47.7682

EPHEMERIS_TYPE = 0
CLASSIFICATION_TYPE = U
NORAD_CAT_ID   = 66254
ELEMENT_SET_NO = 999
REV_AT_EPOCH   = 320
BSTAR          = -.10689842E-1
MEAN_MOTION_DOT = -.1508476E-1
MEAN_MOTION_DDOT = 0

CCSDS_OMM_VERS = 2.0
CREATION_DATE  = 
ORIGINATOR     = 

OBJECT_NAME    = STARLINK-35616
OBJECT_ID      = 2025-245X
CENTER_NAME    = EARTH
REF_FRAME      = TEME
TIME_SYSTEM    = UTC
MEAN_ELEMENT_THEORY = SGP/SGP4

EPOCH          = 2025-11-12T06:00:02.999808
MEAN_MOTION    = 15.76227337
ECCENTRICITY   = .00011059
INCLINATION    = 53.1535
RA_OF_ASC_NODE = 115.0267
ARG_OF_PERICENTER = 69.6635
MEAN_ANOMALY   = 48.2615

EPHEMERIS_TYPE = 0
CLASSIFICATION_TYPE = U
NORAD_CAT_ID   = 66255
ELEMENT_SET_NO = 999
REV_AT_EPOCH   = 320
BSTAR          = -.10852268E-1
MEAN_MOTION_DOT = -.152542E-1
MEAN_MOTION_DDOT = 0

CCSDS_OMM_VERS = 2.0
CREATION_DATE  = 
ORIGINATOR     = 

OBJECT_NAME    = STARLINK-35619
OBJECT_ID      = 2025-245Y
CENTER_NAME    = EARTH
REF_FRAME      = TEME
TIME_SYSTEM    = UTC
MEAN_ELEMENT_THEORY = SGP/SGP4

EPOCH          = 2025-11-12T06:00:02.999808
MEAN_MOTION    = 15.76039629
ECCENTRICITY   = .00011265
INCLINATION    = 53.1531
RA_OF_ASC_NODE = 115.0136
ARG_OF_PERICENTER = 58.3672
MEAN_ANOMALY   = 65.6933

EPHEMERIS_TYPE = 0
CLASSIFICATION_TYPE = U
NORAD_CAT_ID   = 66256
ELEMENT_SET_NO = 999
REV_AT_EPOCH   = 320
BSTAR          = -.10777536E-1
MEAN_MOTION_DOT = -.1505149E-1
MEAN_MOTION_DDOT = 0

CCSDS_OMM_VERS = 2.0
CREATION_DATE  = 
ORIGINATOR     = 

OBJECT_NAME    = STARLINK-35615
OBJECT_ID      = 2025-245Z
CENTER_NAME    = EARTH
REF_FRAME      = TEME
TIME_SYSTEM    = UTC
MEAN_ELEMENT_THEORY = SGP/SGP4

EPOCH          = 2025-11-12T06:00:02.999808
MEAN_MOTION    = 15.76095477
ECCENTRICITY   = .00009333
INCLINATION    = 53.1532
RA_OF_ASC_NODE = 115.0184
ARG_OF_PERICENTER = 70.0635
MEAN_ANOMALY   = 51.9708

EPHEMERIS_TYPE = 0
CLASSIFICATION_TYPE = U
NORAD_CAT_ID   = 66257
ELEMENT_SET_NO = 999
REV_AT_EPOCH   = 320
BSTAR          = -.10800079E-1
MEAN_MOTION_DOT = -.1511077E-1
MEAN_MOTION_DDOT = 0

CCSDS_OMM_VERS = 2.0
CREATION_DATE  = 
ORIGINATOR     = 

OBJECT_NAME    = STARLINK-34650
OBJECT_ID      = 2025-245AA
CENTER_NAME    = EARTH
REF_FRAME      = TEME
TIME_SYSTEM    = UTC
MEAN_ELEMENT_THEORY = SGP/SGP4

EPOCH          = 2025-11-12T06:00:02.999808
MEAN_MOTION    = 15.76204138
ECCENTRICITY   = .00009808
INCLINATION    = 53.1534
RA_OF_ASC_NODE = 115.0227
ARG_OF_PERICENTER = 79.4928
MEAN_ANOMALY   = 40.4064

EPHEMERIS_TYPE = 0
CLASSIFICATION_TYPE = U
NORAD_CAT_ID   = 66258
ELEMENT_SET_NO = 999
REV_AT_EPOCH   = 320
BSTAR          = -.10894459E-1
MEAN_MOTION_DOT = -.1529141E-1
MEAN_MOTION_DDOT = 0

CCSDS_OMM_VERS = 2.0
CREATION_DATE  = 
ORIGINATOR     = 

OBJECT_NAME    = STARLINK-35529
OBJECT_ID      = 2025-245AB
CENTER_NAME    = EARTH
REF_FRAME      = TEME
TIME_SYSTEM    = UTC
MEAN_ELEMENT_THEORY = SGP/SGP4

EPOCH          = 2025-11-12T06:00:02.999808
MEAN_MOTION    = 15.75951424
ECCENTRICITY   = .00011106
INCLINATION    = 53.1535
RA_OF_ASC_NODE = 115.0053
ARG_OF_PERICENTER = 67.7045
MEAN_ANOMALY   = 60.4036

EPHEMERIS_TYPE = 0
CLASSIFICATION_TYPE = U
NORAD_CAT_ID   = 66259
ELEMENT_SET_NO = 999
REV_AT_EPOCH   = 320
BSTAR          = -.11200894E-1
MEAN_MOTION_DOT = -.155142E-1
MEAN_MOTION_DDOT = 0

