STARLINK-35416          
1 66248U 25245Q   25316.25003472 -.01381058  00000+0 -94875-2 0  9996
2 66248  53.1533 115.0591 0000823  63.0380  39.8903 15.76717879  3152
STARLINK-35304          
1 66249U 25245R   25316.25003472 -.01444786  00000+0 -10076-1 0  9995
2 66249  53.1532 115.0448 0001090  69.1567  40.2933 15.76506059  2990
STARLINK-35338          
1 66250U 25245S   25316.25003472 -.01399100  00000+0 -96729-2 0  9996
2 66250  53.1530 115.0538 0000881  70.8784  34.3421 15.76611000  3100
STARLINK-35485          
1 66251U 25245T   25316.25003472 -.01418893  00000+0 -98559-2 0  9991
2 66251  53.1531 115.0492 0000913  73.4323  33.9391 15.76545933  2993
STARLINK-35483          
1 66252U 25245U   25316.25003472 -.01480135  00000+0 -10405-1 0  9993
2 66252  53.1530 115.0394 0000837  67.1326  44.5573 15.76404139  3153
STARLINK-35486          
1 66253U 25245V   25316.25003472 -.01497139  00000+0 -10561-1 0  9999
2 66253  53.1534 115.0361 0001010  67.8796  45.8647 15.76359027  2996
STARLINK-35488          
1 66254U 25245W   25316.25003472 -.01508476  00000+0 -10690-1 0  9990
2 66254  53.1531 115.0307 0001153  68.0973  47.7682 15.76279154  3209
STARLINK-35616          
1 66255U 25245X   25316.25003472 -.01525420  00000+0 -10852-1 0  9999
2 66255  53.1535 115.0267 0001105  69.6635  48.2615 15.76227337  3206
STARLINK-35619          
1 66256U 25245Y   25316.25003472 -.01505149  00000+0 -10778-1 0  9993
2 66256  53.1531 115.0136 0001126  58.3672  65.6933 15.76039629  3208
STARLINK-35615          
1 66257U 25245Z   25316.25003472 -.01511077  00000+0 -10800-1 0  9997
2 66257  53.1532 115.0184 0000933  70.0635  51.9708 15.76095477  3209
STARLINK-34650          
1 66258U 25245AA  25316.25003472 -.01529141  00000+0 -10894-1 0  9992
2 66258  53.1534 115.0227 0000980  79.4928  40.4064 15.76204138  3204
STARLINK-35529          
1 66259U 25245AB  25316.25003472 -.01551420  00000+0 -11201-1 0  9991
2 66259  53.1535 115.0053 0001110  67.7045  60.4036 15.75951424  3206
